[{"OBJECT_NAME":"STARLINK-34052","OBJECT_ID":"2025-094L","EPOCH":"2026-03-09T21:55:28.912512","MEAN_MOTION":14.98352171,"ECCENTRICITY":0.00029817,"INCLINATION":70.0019,"RA_OF_ASC_NODE":234.0106,"ARG_OF_PERICENTER":274.332,"MEAN_ANOMALY":85.7499,"EPHEMERIS_TYPE":0,"CLASSIFICATION_TYPE":"U","NORAD_CAT_ID":63874,"ELEMENT_SET_NO":999,"REV_AT_EPOCH":4723,"BSTAR":0.00022153294,"MEAN_MOTION_DOT":2.553e-5,"MEAN_MOTION_DDOT":0},{"OBJECT_NAME":"CZ-2C R\/B","OBJECT_ID":"2023-187D","EPOCH":"2026-03-09T21:18:27.461376","MEAN_MOTION":14.91546811,"ECCENTRICITY":0.00358476,"INCLINATION":98.1132,"RA_OF_ASC_NODE":178.247,"ARG_OF_PERICENTER":167.8673,"MEAN_ANOMALY":192.3416,"EPHEMERIS_TYPE":0,"CLASSIFICATION_TYPE":"U","NORAD_CAT_ID":58499,"ELEMENT_SET_NO":999,"REV_AT_EPOCH":12301,"BSTAR":0.00023879444,"MEAN_MOTION_DOT":2.36e-5,"MEAN_MOTION_DDOT":0}]
